STARLINK-30807          
1 58192U 23167T   26068.22503525  .00033565  00000+0  12233-2 0  9994
2 58192  42.9957 146.0518 0001111 266.8176  93.2548 15.27589562130913
XCUBE-1                 
1 62400U 24247Z   26068.48297321  .00009773  00000+0  36224-3 0  9994
2 62400  44.9938 117.7807 0005235 331.1499  28.9094 15.27910558 67702
